[{"OBJECT_NAME":"STARLINK-34352","OBJECT_ID":"2025-120B","EPOCH":"2026-03-09T09:58:58.658016","MEAN_MOTION":15.30195099,"ECCENTRICITY":0.00013497,"INCLINATION":53.1582,"RA_OF_ASC_NODE":118.0066,"ARG_OF_PERICENTER":71.674,"MEAN_ANOMALY":288.4407,"EPHEMERIS_TYPE":0,"CLASSIFICATION_TYPE":"U","NORAD_CAT_ID":64257,"ELEMENT_SET_NO":999,"REV_AT_EPOCH":4382,"BSTAR":0.00080299355,"MEAN_MOTION_DOT":0.00023495,"MEAN_MOTION_DDOT":0},{"OBJECT_NAME":"COSMOS 546","OBJECT_ID":"1973-005A","EPOCH":"2026-03-09T21:40:39.247392","MEAN_MOTION":15.29707303,"ECCENTRICITY":0.00147738,"INCLINATION":50.6327,"RA_OF_ASC_NODE":289.914,"ARG_OF_PERICENTER":261.1516,"MEAN_ANOMALY":98.7778,"EPHEMERIS_TYPE":0,"CLASSIFICATION_TYPE":"U","NORAD_CAT_ID":6350,"ELEMENT_SET_NO":999,"REV_AT_EPOCH":92802,"BSTAR":9.142057e-5,"MEAN_MOTION_DOT":2.316e-5,"MEAN_MOTION_DDOT":0}]
